54114,ONEWEB-0492,2022,109.11,148.0,+,87.91,Active,1,LEO,India,UK,Commercial,Communications,PSLV,1 54114U 22138B   24219.61393018  .00000076  00000+0  15692-3 0  9998,2 54114  87.9109  80.1814 0001549  78.0378 282.0928 13.19724183 87202,13.19724183,0.0001549,LEO
54115,ONEWEB-0495,2022,109.11,148.0,+,87.91,Active,1,LEO,India,UK,Commercial,Communications,PSLV,1 54115U 22138C   24219.59182175  .00000020  00000+0  17765-4 0  9999,2 54115  87.9110  80.1973 0001417  54.2289 305.8975 13.19724084 87185,13.19724084,0.0001417,LEO
54116,ONEWEB-0497,2022,109.11,148.0,+,87.91,Active,1,LEO,India,UK,Commercial,Communications,PSLV,1 54116U 22138D   24219.60446077  .00000020  00000+0  16713-4 0  9998,2 54116  87.9106  80.1807 0001672  80.3386 279.7935 13.19725256 87174,13.19725256,0.0001672,LEO
54117,ONEWEB-0499,2022,109.11,148.0,+,87.91,Active,1,LEO,India,UK,Commercial,Communications,PSLV,1 54117U 22138E   24219.58708134 -.00000011  00000+0 -60086-4 0  9995,2 54117  87.9109  80.1877 0002091  70.3380 289.7978 13.19726005 87186,13.19726005,0.0002091,LEO
54118,ONEWEB-0500,2022,109.11,148.0,+,87.91,Active,1,LEO,India,UK,Commercial,Communications,PSLV,1 54118U 22138F   24219.59024343  .00000027  00000+0  35851-4 0  9997,2 54118  87.9106  80.1815 0001695  83.0176 277.1149 13.19723729 87191,13.19723729,0.0001695,LEO
54119,ONEWEB-0501,2022,109.11,148.0,+,87.91,Active,1,LEO,India,UK,Commercial,Communications,PSLV,1 54119U 22138G   24219.62026478  .00000086  00000+0  18266-3 0  9998,2 54119  87.9106  80.1732 0001550  64.6253 295.5040 13.19724541 87176,13.19724541,0.000155,LEO
54120,ONEWEB-0502,2022,109.11,148.0,+,87.91,Active,1,LEO,India,UK,Commercial,Communications,PSLV,1 54120U 22138H   24219.60603876  .00000043  00000+0  74337-4 0  9996,2 54120  87.9104  80.1646 0001755  70.9220 289.2103 13.19725219 87196,13.19725219,0.0001755,LEO
54121,ONEWEB-0503,2022,109.11,148.0,+,87.91,Active,1,LEO,India,UK,Commercial,Communications,PSLV,1 54121U 22138J   24219.59498672 -.00000012  00000+0 -62305-4 0  9991,2 54121  87.9103  80.1732 0002204  77.8340 282.3040 13.19724768 87182,13.19724768,0.0002204,LEO
